INTELSAT 21 (IS-21)     
1 38749U 12045A   26155.05452509 -.00000273  00000+0  00000+0 0  9993
2 38749   0.0368  77.8866 0002157   7.0429 129.2018  1.00270324 50398
INTELSAT 23 (IS-23)     
1 38867U 12057A   26155.12677619 -.00000273  00000+0  00000+0 0  9996
2 38867   0.0141 303.1614 0000254 182.9975 119.0589  1.00268539 49820
FM-6                    
1 39360U 13058A   26154.68646652 -.00000002  00000+0  00000+0 0  9990
2 39360   0.0086  41.1711 0002470 106.4016 235.3713  1.00260986 45930
INTELSAT 30 (IS-30)     
1 40271U 14062A   26155.14142060 -.00000139  00000+0  00000+0 0  9996
2 40271   0.0272  48.0262 0000944 355.5238 164.8974  1.00270593  6661
DIRECTV 14              
1 40333U 14078B   26154.97502953 -.00000113  00000+0  00000+0 0  9995
2 40333   0.0107 331.1802 0000240 175.9193 357.1086  1.00271680 41912
DIRECTV 15              
1 40663U 15026A   26155.23001969 -.00000090  00000+0  00000+0 0  9990
2 40663   0.0179   3.0157 0000135  51.4831 178.0899  1.00268514 40334
SKY MEXICO-1            
1 40664U 15026B   26155.12172831 -.00000222  00000+0  00000+0 0  9993
2 40664   0.0177   0.7070 0002376  90.7476 126.1368  1.00271061 40326
INTELSAT 34 (IS-34)     
1 40874U 15039A   26155.12634286 -.00000273  00000+0  00000+0 0  9993
2 40874   0.0086 339.4745 0000331  48.0566 215.0374  1.00270050 39504
INTELSAT 31 (IS-31)     
1 41581U 16035A   26155.14142060 -.00000139  00000+0  00000+0 0  9993
2 41581   0.0134 267.5126 0000844 314.9672 345.9814  1.00272925 36557
INTELSAT 36 (IS-36)     
1 41747U 16053A   26155.15091457 -.00000012  00000+0  00000+0 0  9991
2 41747   0.0127   7.5098 0001655 336.2216  31.6951  1.00270723 35829
INTELSAT 32E (IS-32E)   
1 41945U 17007B   26155.12876955 -.00000257  00000+0  00000+0 0  9993
2 41945   0.0177 353.9357 0000223 356.4589 265.3563  1.00271115 34096
INTELSAT 35E (IS-35E)   
1 42818U 17041A   26155.05920513 -.00000226  00000+0  00000+0 0  9999
2 42818   0.0176   6.5247 0002023  67.7481 165.0531  1.00273753 32681
INTELSAT 37E (IS-37E)   
1 42950U 17059A   26155.13375449 -.00000128  00000+0  00000+0 0  9997
2 42950   0.0272  69.1938 0002684  15.6646 197.8938  1.00272962 31937
AZERSPACE 2 (IS-38)     
1 43632U 18074A   26155.00366763  .00000148  00000+0  00000+0 0  9999
2 43632   0.0172 339.5833 0001577  99.3546 219.9433  1.00272017 28315
HORIZONS-3E             
1 43633U 18074B   26154.74303062 -.00000018  00000+0  00000+0 0  9990
2 43633   0.0147 152.8945 0000689 126.1807  49.6128  1.00271837 28206
AT&T T-16               
1 44333U 19034A   26154.97476950 -.00000104  00000+0  00000+0 0  9993
2 44333   0.0267  66.2986 0000384 203.9799 232.2098  1.00273791 25503
INTELSAT 39 (IS-39)     
1 44476U 19049B   26155.07829666  .00000045  00000+0  00000+0 0  9998
2 44476   0.0182 326.4973 0000599   4.9463  11.2279  1.00271390 24990
GALAXY 30 (G-30)        
1 46114U 20056C   26154.97000284  .00000049  00000+0  00000+0 0  9998
2 46114   0.0126  35.0814 0002457  36.0547  45.4718  1.00272060 21168
GALAXY 33 (G-33)        
1 54026U 22128A   26155.03960008  .00000091  00000+0  00000+0 0  9995
2 54026   0.0130  25.3311 0002036  50.3491  58.0837  1.00273072 13615
GALAXY 34 (G-34)        
1 54027U 22128B   26154.96922284  .00000000  00000+0  00000+0 0  9991
2 54027   0.0230 345.7774 0001914 104.4131  22.1612  1.00271953 13782
GALAXY 31 (G-31)        
1 54243U 22153A   26155.11331014  .00000025  00000+0  00000+0 0  9999
2 54243   0.0123  30.0038 0001508  43.1326  99.2199  1.00271997  7005
GALAXY 32 (G-32)        
1 54244U 22153B   26154.83402102 -.00000162  00000+0  00000+0 0  9998
2 54244   0.0097 353.7552 0002383  46.7034  61.0732  1.00270822 13013
GALAXY 35 (G-35)        
1 54741U 22170A   26155.18239306 -.00000150  00000+0  00000+0 0  9999
2 54741   0.0158  34.4261 0002248  43.2199 147.5532  1.00272420 12762
GALAXY 36 (G-36)        
1 54742U 22170B   26154.83454102 -.00000173  00000+0  00000+0 0  9999
2 54742   0.0175 242.0719 0002903 197.6370  24.0211  1.00272722 12645
GALAXY 37 (G-37)        
1 57493U 23112A   26155.11218346  .00000060  00000+0  00000+0 0  9996
2 57493   0.0151 313.0949 0002260 123.1199  89.7422  1.00273048 10415
